FENGYUN 3D              
1 43010U 17072A   26162.86174968 -.00000343  00000+0 -14009-3 0  9999
2 43010  99.0120 137.1875 0002640  70.9605 289.1856 14.19736845444236
NOAA 20 (JPSS-1)        
1 43013U 17073A   26162.85582698  .00000043  00000+0  41378-4 0  9990
2 43013  98.7772 102.3658 0000344  55.9636 304.1572 14.19510795443716
GOES 17                 
1 43226U 18022A   26162.60548728 -.00000166  00000+0  00000+0 0  9999
2 43226   0.9223  85.8105 0000476  24.8484 277.7766  1.00270815 30367
SENTINEL-3B             
1 43437U 18039A   26162.43904625  .00000076  00000+0  49397-4 0  9990
2 43437  98.6248 230.0537 0000809  80.8461 279.2811 14.26740095423304
FENGYUN 2H              
1 43491U 18050A   26162.85276367 -.00000116  00000+0  00000+0 0  9993
2 43491   3.0162  79.1409 0001807 131.0155  76.4689  1.00270449 29386
METOP-C                 
1 43689U 18087A   26162.78898949  .00000079  00000+0  55710-4 0  9990
2 43689  98.6645 222.4910 0001574 135.3466 224.7839 14.21510647394063
GEO-KOMPSAT-2A          
1 43823U 18100A   26162.71990316 -.00000327  00000+0  00000+0 0  9994
2 43823   0.0542 130.1976 0001897 317.0175 200.2668  1.00274059 27572
METEOR-M2 2             
1 44387U 19038A   26162.90596265 -.00000288  00000+0 -10484-3 0  9995
2 44387  98.9142 150.1130 0002217  56.5710 303.5680 14.24363551360545
ARKTIKA-M 1             
1 47719U 21016A   26160.51571443 -.00000149  00000+0  00000+0 0  9996
2 47719  63.2417  58.7595 7285674 269.8905  14.6803  2.00625436 38630
FENGYUN 3E              
1 49008U 21062A   26162.84620902  .00000057  00000+0  47410-4 0  9991
2 49008  98.7494 166.3134 0002784  94.6394 265.5100 14.19903830255823
GOES 18                 
1 51850U 22021A   26162.66734682  .00000113  00000+0  00000+0 0  9998
2 51850   0.0332 125.7729 0000460  29.3228 208.1548  1.00271607  6534
NOAA 21 (JPSS-2)        
1 54234U 22150A   26162.81843905  .00000022  00000+0  31148-4 0  9997
2 54234  98.7060 101.6977 0001369 166.0870 194.0344 14.19564540185781
METEOSAT-12 (MTG-I1)    
1 54743U 22170C   26162.69438692  .00000008  00000+0  00000+0 0  9995
2 54743   0.7318  21.9787 0003235  72.0387  55.5733  1.00271721 12921
TIANMU-1 03             
1 55973U 23039A   26162.81153549  .00014000  00000+0  27770-3 0  9999
2 55973  97.5227 336.5716 0004225 112.4482 247.7216 15.47132872180007
TIANMU-1 04             
1 55974U 23039B   26162.80308044  .00014495  00000+0  28160-3 0  9993
2 55974  97.5165 335.7160 0004795 109.6065 250.5703 15.47726288180014
TIANMU-1 05             
1 55975U 23039C   26162.85672544  .00014419  00000+0  28667-3 0  9996
2 55975  97.5208 336.2354 0003833 126.8758 233.2843 15.47061241179995
TIANMU-1 06             
1 55976U 23039D   26162.80612831  .00014403  00000+0  28076-3 0  9992
2 55976  97.5218 336.8130 0004183 124.2282 235.9364 15.47632373180010
FENGYUN 3G              
1 56232U 23055A   26162.82875233  .00023318  00000+0  38063-3 0  9997
2 56232  49.9935  13.6269 0006859 272.4692  87.5489 15.52395127179172
METEOR-M2 3             
1 57166U 23091A   26162.82879817 -.00000009  00000+0  14807-4 0  9990
2 57166  98.6091 217.9165 0004053 169.3590 190.7676 14.24046313153751
TIANMU-1 07             
1 57399U 23101A   26162.86723507  .00005767  00000+0  20269-3 0  9991
2 57399  97.2600 213.6577 0003808 132.6481 227.5081 15.29745685160839
TIANMU-1 08             
1 57400U 23101B   26162.83389191  .00005757  00000+0  20230-3 0  9995
2 57400  97.2589 213.3964 0005373 128.0102 232.1624 15.29750166160827
TIANMU-1 09             
1 57401U 23101C   26162.88282274  .00006177  00000+0  21666-3 0  9996
2 57401  97.2547 212.8628 0004251 138.7386 221.4176 15.29780225160832
TIANMU-1 10             
1 57402U 23101D   26162.85036308  .00005731  00000+0  20137-3 0  9996
2 57402  97.2627 213.8761 0005823 140.2005 219.9664 15.29750534160826
FENGYUN 3F              
1 57490U 23111A   26162.83025081  .00000025  00000+0  32353-4 0  9993
2 57490  98.6841 232.9385 0001593  97.2141 262.9217 14.19938176148109
ARKTIKA-M 2             
1 58584U 23198A   26160.78386103  .00000212  00000+0  00000+0 0  9997
2 58584  63.2205 155.1874 6900401 267.4353  18.7899  2.00606537 18179
TIANMU-1 11             
1 58645U 23205A   26162.87653190  .00005411  00000+0  20708-3 0  9996
2 58645  97.3449 184.5166 0009582  34.7335 325.4527 15.26940935136716
TIANMU-1 12             
1 58646U 23205B   26162.84676885  .00005101  00000+0  19571-3 0  9992
2 58646  97.3438 184.2442 0007412  21.9511 338.2044 15.26903257136692
TIANMU-1 13             
1 58647U 23205C   26162.87843997  .00005446  00000+0  20969-3 0  9991
2 58647  97.3466 184.5471 0006536   2.0781 358.0484 15.26757912136697
TIANMU-1 14             
1 58648U 23205D   26162.86380145  .00005503  00000+0  21152-3 0  9991
2 58648  97.3401 183.7187 0007526   5.5578 354.5743 15.26802494136699
TIANMU-1 19             
1 58660U 23208A   26162.86408480  .00007535  00000+0  25027-3 0  9993
2 58660  97.4495 279.1371 0004238 351.4866   8.6303 15.31493818136514
TIANMU-1 20             
1 58661U 23208B   26162.84072830  .00007391  00000+0  23654-3 0  9992
2 58661  97.4437 279.7435 0006476 354.9638   5.1538 15.32685101136600
